[
    {
        "Altitude(m)": 716532.7225746908,
        "Argument of Periapsis(deg)": 0.011390121186627068,
        "Eccentricity": 0.0,
        "Inclination(deg)": 45.0,
        "Latitude(deg)": -41.894006668596774,
        "Longitude(deg)": 86.06868754142022,
        "Mean Anomaly(deg)": -70.2849833525192,
        "RAAN(deg)": 249.9892480585418,
        "Satellite Name": "Constellation 1 1117",
        "Satellite Number": 1117,
        "Semi-Major Axis(m)": 7083131.272910544,
        "Time(s)": 190
    },
    {
        "Altitude(m)": 716524.6761401943,
        "Argument of Periapsis(deg)": 0.011450069192872472,
        "Eccentricity": 0.0,
        "Inclination(deg)": 45.0,
        "Latitude(deg)": -41.87460306985266,
        "Longitude(deg)": 86.14146427911659,
        "Mean Anomaly(deg)": -70.22428221226924,
        "RAAN(deg)": 249.98919146937624,
        "Satellite Name": "Constellation 1 1117",
        "Satellite Number": 1117,
        "Semi-Major Axis(m)": 7083131.272910544,
        "Time(s)": 191
    },
    {
        "Altitude(m)": 716516.6082896877,
        "Argument of Periapsis(deg)": 0.01151001719911788,
        "Eccentricity": 0.0,
        "Inclination(deg)": 45.0,
        "Latitude(deg)": -41.85514796231487,
        "Longitude(deg)": 86.21419457484349,
        "Mean Anomaly(deg)": -70.16358107201928,
        "RAAN(deg)": 249.98913488021068,
        "Satellite Name": "Constellation 1 1117",
        "Satellite Number": 1117,
        "Semi-Major Axis(m)": 7083131.272910544,
        "Time(s)": 192
    },
    {
        "Altitude(m)": 716508.5190527334,
        "Argument of Periapsis(deg)": 0.011569965205363285,
        "Eccentricity": 0.0,
        "Inclination(deg)": 45.0,
        "Latitude(deg)": -41.835641411384,
        "Longitude(deg)": 86.28687819758933,
        "Mean Anomaly(deg)": -70.10287993176955,
        "RAAN(deg)": 249.98907829104513,
        "Satellite Name": "Constellation 1 1117",
        "Satellite Number": 1117,
        "Semi-Major Axis(m)": 7083131.272910544,
        "Time(s)": 193
    },
    {
        "Altitude(m)": 716500.4084589753,
        "Argument of Periapsis(deg)": 0.01162991321160869,
        "Eccentricity": 0.0,
        "Inclination(deg)": 45.0,
        "Latitude(deg)": -41.8160834825305,
        "Longitude(deg)": 86.35951542117155,
        "Mean Anomaly(deg)": -70.04217879151959,
        "RAAN(deg)": 249.98902170187958,
        "Satellite Name": "Constellation 1 1117",
        "Satellite Number": 1117,
        "Semi-Major Axis(m)": 7083131.272910544,
        "Time(s)": 194
    },
    {
        "Altitude(m)": 716492.2765381293,
        "Argument of Periapsis(deg)": 0.011689861217854095,
        "Eccentricity": 0.0,
        "Inclination(deg)": 45.0,
        "Latitude(deg)": -41.79647424129439,
        "Longitude(deg)": 86.4321060156535,
        "Mean Anomaly(deg)": -69.9814776512697,
        "RAAN(deg)": 249.98896511271394,
        "Satellite Name": "Constellation 1 1117",
        "Satellite Number": 1117,
        "Semi-Major Axis(m)": 7083131.272910544,
        "Time(s)": 195
    },
    {
        "Altitude(m)": 716484.1233199906,
        "Argument of Periapsis(deg)": 0.0117498092240995,
        "Eccentricity": 0.0,
        "Inclination(deg)": 45.0,
        "Latitude(deg)": -41.77681375328406,
        "Longitude(deg)": 86.50464991973261,
        "Mean Anomaly(deg)": -69.92077651101984,
        "RAAN(deg)": 249.9889085235484,
        "Satellite Name": "Constellation 1 1117",
        "Satellite Number": 1117,
        "Semi-Major Axis(m)": 7083131.272910544,
        "Time(s)": 196
    },
    {
        "Altitude(m)": 716475.9488344318,
        "Argument of Periapsis(deg)": 0.011809757230344905,
        "Eccentricity": 0.0,
        "Inclination(deg)": 45.0,
        "Latitude(deg)": -41.757102084175536,
        "Longitude(deg)": 86.57714707264216,
        "Mean Anomaly(deg)": -69.86007537076989,
        "RAAN(deg)": 249.98885193438284,
        "Satellite Name": "Constellation 1 1117",
        "Satellite Number": 1117,
        "Semi-Major Axis(m)": 7083131.272910544,
        "Time(s)": 197
    },
    {
        "Altitude(m)": 716467.7531113947,
        "Argument of Periapsis(deg)": 0.011869705236590313,
        "Eccentricity": 0.0,
        "Inclination(deg)": 45.0,
        "Latitude(deg)": -41.737339299711735,
        "Longitude(deg)": 86.64959741415042,
        "Mean Anomaly(deg)": -69.79937423051993,
        "RAAN(deg)": 249.98879534521728,
        "Satellite Name": "Constellation 1 1117",
        "Satellite Number": 1117,
        "Semi-Major Axis(m)": 7083131.272910544,
        "Time(s)": 198
    },
    {
        "Altitude(m)": 716459.5361809138,
        "Argument of Periapsis(deg)": 0.011929653242835719,
        "Eccentricity": 0.0,
        "Inclination(deg)": 45.0,
        "Latitude(deg)": -41.71752546570161,
        "Longitude(deg)": 86.72200088455999,
        "Mean Anomaly(deg)": -69.7386730902701,
        "RAAN(deg)": 249.98873875605173,
        "Satellite Name": "Constellation 1 1117",
        "Satellite Number": 1117,
        "Semi-Major Axis(m)": 7083131.272910544,
        "Time(s)": 199
    }
]